[{"OBJECT_NAME":"ONEWEB-0092","OBJECT_ID":"2020-020P","EPOCH":"2026-03-03T12:00:22.501152","MEAN_MOTION":13.11416365,"ECCENTRICITY":0.00018974,"INCLINATION":87.8854,"RA_OF_ASC_NODE":42.0778,"ARG_OF_PERICENTER":73.7816,"MEAN_ANOMALY":286.3521,"EPHEMERIS_TYPE":0,"CLASSIFICATION_TYPE":"U","NORAD_CAT_ID":45437,"ELEMENT_SET_NO":999,"REV_AT_EPOCH":28893,"BSTAR":-0.0014682157,"MEAN_MOTION_DOT":-5.08e-6,"MEAN_MOTION_DDOT":0},{"OBJECT_NAME":"ONEWEB-0085","OBJECT_ID":"2020-020Q","EPOCH":"2026-03-03T20:12:20.541024","MEAN_MOTION":13.11417064,"ECCENTRICITY":0.00018455,"INCLINATION":87.8852,"RA_OF_ASC_NODE":42.014,"ARG_OF_PERICENTER":81.8062,"MEAN_ANOMALY":278.3275,"EPHEMERIS_TYPE":0,"CLASSIFICATION_TYPE":"U","NORAD_CAT_ID":45438,"ELEMENT_SET_NO":999,"REV_AT_EPOCH":28886,"BSTAR":0.0011975052,"MEAN_MOTION_DOT":4.37e-6,"MEAN_MOTION_DDOT":0},{"OBJECT_NAME":"ONEWEB-0096","OBJECT_ID":"2020-020R","EPOCH":"2026-03-03T20:14:47.090976","MEAN_MOTION":13.11416658,"ECCENTRICITY":0.00017864,"INCLINATION":87.886,"RA_OF_ASC_NODE":42.0016,"ARG_OF_PERICENTER":82.4407,"MEAN_ANOMALY":277.6924,"EPHEMERIS_TYPE":0,"CLASSIFICATION_TYPE":"U","NORAD_CAT_ID":45439,"ELEMENT_SET_NO":999,"REV_AT_EPOCH":28885,"BSTAR":0.0012627326,"MEAN_MOTION_DOT":4.6e-6,"MEAN_MOTION_DDOT":0},{"OBJECT_NAME":"ONEWEB-0037","OBJECT_ID":"2020-020S","EPOCH":"2026-03-03T10:37:21.675072","MEAN_MOTION":13.11417859,"ECCENTRICITY":0.00018964,"INCLINATION":87.8866,"RA_OF_ASC_NODE":42.057,"ARG_OF_PERICENTER":81.382,"MEAN_ANOMALY":278.7523,"EPHEMERIS_TYPE":0,"CLASSIFICATION_TYPE":"U","NORAD_CAT_ID":45440,"ELEMENT_SET_NO":999,"REV_AT_EPOCH":28883,"BSTAR":-0.00062689646,"MEAN_MOTION_DOT":-2.09e-6,"MEAN_MOTION_DDOT":0},{"OBJECT_NAME":"ONEWEB-0042","OBJECT_ID":"2020-020T","EPOCH":"2026-03-03T10:50:35.286720","MEAN_MOTION":13.11417795,"ECCENTRICITY":0.00017501,"INCLINATION":87.8857,"RA_OF_ASC_NODE":42.0772,"ARG_OF_PERICENTER":81.9454,"MEAN_ANOMALY":278.1873,"EPHEMERIS_TYPE":0,"CLASSIFICATION_TYPE":"U","NORAD_CAT_ID":45441,"ELEMENT_SET_NO":999,"REV_AT_EPOCH":28880,"BSTAR":0.00055989929,"MEAN_MOTION_DOT":2.11e-6,"MEAN_MOTION_DDOT":0},{"OBJECT_NAME":"ONEWEB-0098","OBJECT_ID":"2020-020U","EPOCH":"2026-03-03T10:44:41.075232","MEAN_MOTION":13.11417528,"ECCENTRICITY":0.00019001,"INCLINATION":87.8855,"RA_OF_ASC_NODE":42.0895,"ARG_OF_PERICENTER":85.8233,"MEAN_ANOMALY":274.3112,"EPHEMERIS_TYPE":0,"CLASSIFICATION_TYPE":"U","NORAD_CAT_ID":45442,"ELEMENT_SET_NO":999,"REV_AT_EPOCH":28878,"BSTAR":5.6821806e-5,"MEAN_MOTION_DOT":3.3e-7,"MEAN_MOTION_DDOT":0},{"OBJECT_NAME":"ONEWEB-0055","OBJECT_ID":"2020-020V","EPOCH":"2026-03-03T10:20:16.234080","MEAN_MOTION":13.11417004,"ECCENTRICITY":0.00018998,"INCLINATION":87.8855,"RA_OF_ASC_NODE":42.0933,"ARG_OF_PERICENTER":86.4466,"MEAN_ANOMALY":273.6879,"EPHEMERIS_TYPE":0,"CLASSIFICATION_TYPE":"U","NORAD_CAT_ID":45443,"ELEMENT_SET_NO":999,"REV_AT_EPOCH":28875,"BSTAR":-0.001471991,"MEAN_MOTION_DOT":-5.09e-6,"MEAN_MOTION_DDOT":0},{"OBJECT_NAME":"ONEWEB-0093","OBJECT_ID":"2020-020W","EPOCH":"2026-03-03T22:34:08.730912","MEAN_MOTION":13.11413593,"ECCENTRICITY":0.00014328,"INCLINATION":87.8859,"RA_OF_ASC_NODE":41.9812,"ARG_OF_PERICENTER":78.9823,"MEAN_ANOMALY":281.1466,"EPHEMERIS_TYPE":0,"CLASSIFICATION_TYPE":"U","NORAD_CAT_ID":45444,"ELEMENT_SET_NO":999,"REV_AT_EPOCH":28888,"BSTAR":0.0005113399,"MEAN_MOTION_DOT":1.94e-6,"MEAN_MOTION_DDOT":0},{"OBJECT_NAME":"ONEWEB-0029","OBJECT_ID":"2020-020X","EPOCH":"2026-03-03T10:08:03.491232","MEAN_MOTION":13.11415249,"ECCENTRICITY":0.00016891,"INCLINATION":87.8854,"RA_OF_ASC_NODE":42.0959,"ARG_OF_PERICENTER":86.0467,"MEAN_ANOMALY":274.0854,"EPHEMERIS_TYPE":0,"CLASSIFICATION_TYPE":"U","NORAD_CAT_ID":45445,"ELEMENT_SET_NO":999,"REV_AT_EPOCH":28879,"BSTAR":-0.0013428964,"MEAN_MOTION_DOT":-4.63e-6,"MEAN_MOTION_DDOT":0},{"OBJECT_NAME":"ONEWEB-0068","OBJECT_ID":"2020-020Y","EPOCH":"2026-03-03T22:33:44.746272","MEAN_MOTION":13.11414115,"ECCENTRICITY":0.00016495,"INCLINATION":87.8861,"RA_OF_ASC_NODE":41.9835,"ARG_OF_PERICENTER":86.2568,"MEAN_ANOMALY":273.8748,"EPHEMERIS_TYPE":0,"CLASSIFICATION_TYPE":"U","NORAD_CAT_ID":45446,"ELEMENT_SET_NO":999,"REV_AT_EPOCH":28880,"BSTAR":0.00057087321,"MEAN_MOTION_DOT":2.15e-6,"MEAN_MOTION_DDOT":0},{"OBJECT_NAME":"ONEWEB-0046","OBJECT_ID":"2020-020Z","EPOCH":"2026-03-03T11:22:31.952352","MEAN_MOTION":13.11414405,"ECCENTRICITY":0.00017253,"INCLINATION":87.8859,"RA_OF_ASC_NODE":42.0831,"ARG_OF_PERICENTER":77.2311,"MEAN_ANOMALY":282.9009,"EPHEMERIS_TYPE":0,"CLASSIFICATION_TYPE":"U","NORAD_CAT_ID":45447,"ELEMENT_SET_NO":999,"REV_AT_EPOCH":28875,"BSTAR":0.0011895365,"MEAN_MOTION_DOT":4.34e-6,"MEAN_MOTION_DDOT":0},{"OBJECT_NAME":"ONEWEB-0063","OBJECT_ID":"2020-020AA","EPOCH":"2026-03-03T10:14:09.269088","MEAN_MOTION":13.11416001,"ECCENTRICITY":0.00018678,"INCLINATION":87.8859,"RA_OF_ASC_NODE":42.0901,"ARG_OF_PERICENTER":77.0316,"MEAN_ANOMALY":283.1021,"EPHEMERIS_TYPE":0,"CLASSIFICATION_TYPE":"U","NORAD_CAT_ID":45448,"ELEMENT_SET_NO":999,"REV_AT_EPOCH":28883,"BSTAR":-0.0014430908,"MEAN_MOTION_DOT":-4.99e-6,"MEAN_MOTION_DDOT":0},{"OBJECT_NAME":"ONEWEB-0019","OBJECT_ID":"2020-020AB","EPOCH":"2026-03-03T22:09:19.809216","MEAN_MOTION":13.1141587,"ECCENTRICITY":0.00019764,"INCLINATION":87.8848,"RA_OF_ASC_NODE":41.9858,"ARG_OF_PERICENTER":87.6869,"MEAN_ANOMALY":272.4485,"EPHEMERIS_TYPE":0,"CLASSIFICATION_TYPE":"U","NORAD_CAT_ID":45449,"ELEMENT_SET_NO":999,"REV_AT_EPOCH":28874,"BSTAR":0.0014996424,"MEAN_MOTION_DOT":5.44e-6,"MEAN_MOTION_DDOT":0},{"OBJECT_NAME":"ONEWEB-0094","OBJECT_ID":"2020-020AC","EPOCH":"2026-03-03T19:17:03.801408","MEAN_MOTION":13.17652337,"ECCENTRICITY":0.00017501,"INCLINATION":87.9149,"RA_OF_ASC_NODE":26.7659,"ARG_OF_PERICENTER":87.3291,"MEAN_ANOMALY":272.804,"EPHEMERIS_TYPE":0,"CLASSIFICATION_TYPE":"U","NORAD_CAT_ID":45450,"ELEMENT_SET_NO":999,"REV_AT_EPOCH":29243,"BSTAR":0.0001128031,"MEAN_MOTION_DOT":5.7e-7,"MEAN_MOTION_DDOT":0},{"OBJECT_NAME":"ONEWEB-0087","OBJECT_ID":"2020-020AD","EPOCH":"2026-03-03T10:28:36.347520","MEAN_MOTION":13.11416941,"ECCENTRICITY":0.00015738,"INCLINATION":87.8864,"RA_OF_ASC_NODE":42.0545,"ARG_OF_PERICENTER":87.6583,"MEAN_ANOMALY":272.4726,"EPHEMERIS_TYPE":0,"CLASSIFICATION_TYPE":"U","NORAD_CAT_ID":45451,"ELEMENT_SET_NO":999,"REV_AT_EPOCH":28872,"BSTAR":-0.0010925051,"MEAN_MOTION_DOT":-3.74e-6,"MEAN_MOTION_DDOT":0},{"OBJECT_NAME":"ONEWEB-0082","OBJECT_ID":"2020-020AE","EPOCH":"2026-03-03T10:23:55.133664","MEAN_MOTION":13.11417028,"ECCENTRICITY":0.00016365,"INCLINATION":87.8862,"RA_OF_ASC_NODE":42.0794,"ARG_OF_PERICENTER":88.3641,"MEAN_ANOMALY":271.7675,"EPHEMERIS_TYPE":0,"CLASSIFICATION_TYPE":"U","NORAD_CAT_ID":45452,"ELEMENT_SET_NO":999,"REV_AT_EPOCH":28881,"BSTAR":-0.0012622358,"MEAN_MOTION_DOT":-4.35e-6,"MEAN_MOTION_DDOT":0},{"OBJECT_NAME":"ONEWEB-0050","OBJECT_ID":"2020-020AF","EPOCH":"2026-03-03T21:57:59.175936","MEAN_MOTION":14.89977303,"ECCENTRICITY":0.00039097,"INCLINATION":88.9193,"RA_OF_ASC_NODE":247.5456,"ARG_OF_PERICENTER":33.1913,"MEAN_ANOMALY":326.9561,"EPHEMERIS_TYPE":0,"CLASSIFICATION_TYPE":"U","NORAD_CAT_ID":45453,"ELEMENT_SET_NO":999,"REV_AT_EPOCH":32470,"BSTAR":0.00029282252,"MEAN_MOTION_DOT":2.841e-5,"MEAN_MOTION_DDOT":0}]
